STARLINK-37083          
1 68227U 26053W   26092.90032712  .00346727  00000+0  17253-2 0  9992
2 68227  97.2849 328.4107 0001423  75.8142 284.3284 15.81000312  3856
STARLINK-37050          
1 68228U 26053X   26092.89882202  .00378299  00000+0  18738-2 0  9996
2 68228  97.2851 328.4132 0001793  76.1717 283.9751 15.81020820  3861
STARLINK-37081          
1 68229U 26053Y   26092.91668981 -.00096894  00000+0 -65645-3 0  9996
2 68229  97.2862 328.4011 0001366 117.9802 270.5447 15.75178537  3906
STARLINK-37100          
1 68230U 26053Z   26092.89807280  .00243236  00000+0  12271-2 0  9990
2 68230  97.2852 328.4140 0002087 116.9769 243.1713 15.80965030  3889
STARLINK-37104          
1 68231U 26053AA  26092.89732424  .00195444  00000+0  99316-3 0  9991
2 68231  97.2851 328.4144 0001241  76.1654 283.9752 15.80931395  3886
STARLINK-37027          
1 68232U 26054A   26092.91668981 -.00042545  00000+0 -27514-3 0  9998
2 68232  53.1599 191.4456 0001089 109.6456 225.3259 15.75207726  3805
STARLINK-37132          
1 68233U 26054B   26092.71478123  .00385376  00000+0  18554-2 0  9997
2 68233  53.1591 192.2623 0000884  89.6605 270.4519 15.81045239  2577
STARLINK-37101          
1 68234U 26054C   26092.91668981 -.00070917  00000+0 -46252-3 0  9994
2 68234  53.1591 191.3434 0001176  87.8477 296.7589 15.75229432  3807
STARLINK-36963          
1 68235U 26054D   26092.91668981 -.00166716  00000+0 -11030-2 0  9993
2 68235  53.1597 191.3960 0001281 129.2196 229.6229 15.75278147  3807
STARLINK-37127          
1 68236U 26054E   26092.73565703  .00206613  00000+0  13135-2 0  9999
2 68236  53.1600 192.4004 0001055  82.7231 277.3910 15.75340100  2575
STARLINK-37095          
1 68237U 26054F   26092.73111698  .00231063  00000+0  14635-2 0  9993
2 68237  53.1606 192.3706 0000863  89.5216 270.5903 15.75350878  2574
STARLINK-37097          
1 68238U 26054G   26092.77424562  .00403458  00000+0  19356-2 0  9999
2 68238  53.1587 191.9192 0001198  84.6351 275.4809 15.81074930  2584
