CCSDS_OMM_VERS = 2.0
CREATION_DATE  = 
ORIGINATOR     = 

OBJECT_NAME    = STARLINK-37083
OBJECT_ID      = 2026-053W
CENTER_NAME    = EARTH
REF_FRAME      = TEME
TIME_SYSTEM    = UTC
MEAN_ELEMENT_THEORY = SGP/SGP4

EPOCH          = 2026-04-02T21:36:28.263168
MEAN_MOTION    = 15.81000312
ECCENTRICITY   = .00014238
INCLINATION    = 97.2849
RA_OF_ASC_NODE = 328.4107
ARG_OF_PERICENTER = 75.8142
MEAN_ANOMALY   = 284.3284

EPHEMERIS_TYPE = 0
CLASSIFICATION_TYPE = U
NORAD_CAT_ID   = 68227
ELEMENT_SET_NO = 999
REV_AT_EPOCH   = 385
BSTAR          = .17253421E-2
MEAN_MOTION_DOT = .346727E-2
MEAN_MOTION_DDOT = 0

CCSDS_OMM_VERS = 2.0
CREATION_DATE  = 
ORIGINATOR     = 

OBJECT_NAME    = STARLINK-37050
OBJECT_ID      = 2026-053X
CENTER_NAME    = EARTH
REF_FRAME      = TEME
TIME_SYSTEM    = UTC
MEAN_ELEMENT_THEORY = SGP/SGP4

EPOCH          = 2026-04-02T21:34:18.222528
MEAN_MOTION    = 15.81020820
ECCENTRICITY   = .00017935
INCLINATION    = 97.2851
RA_OF_ASC_NODE = 328.4132
ARG_OF_PERICENTER = 76.1717
MEAN_ANOMALY   = 283.9751

EPHEMERIS_TYPE = 0
CLASSIFICATION_TYPE = U
NORAD_CAT_ID   = 68228
ELEMENT_SET_NO = 999
REV_AT_EPOCH   = 386
BSTAR          = .18737555E-2
MEAN_MOTION_DOT = .378299E-2
MEAN_MOTION_DDOT = 0

CCSDS_OMM_VERS = 2.0
CREATION_DATE  = 
ORIGINATOR     = 

OBJECT_NAME    = STARLINK-37081
OBJECT_ID      = 2026-053Y
CENTER_NAME    = EARTH
REF_FRAME      = TEME
TIME_SYSTEM    = UTC
MEAN_ELEMENT_THEORY = SGP/SGP4

EPOCH          = 2026-04-02T22:00:01.999584
MEAN_MOTION    = 15.75178537
ECCENTRICITY   = .00013669
INCLINATION    = 97.2862
RA_OF_ASC_NODE = 328.4011
ARG_OF_PERICENTER = 117.9802
MEAN_ANOMALY   = 270.5447

EPHEMERIS_TYPE = 0
CLASSIFICATION_TYPE = U
NORAD_CAT_ID   = 68229
ELEMENT_SET_NO = 999
REV_AT_EPOCH   = 390
BSTAR          = -.65645111E-3
MEAN_MOTION_DOT = -.96894E-3
MEAN_MOTION_DDOT = 0

CCSDS_OMM_VERS = 2.0
CREATION_DATE  = 
ORIGINATOR     = 

OBJECT_NAME    = STARLINK-37100
OBJECT_ID      = 2026-053Z
CENTER_NAME    = EARTH
REF_FRAME      = TEME
TIME_SYSTEM    = UTC
MEAN_ELEMENT_THEORY = SGP/SGP4

EPOCH          = 2026-04-02T21:33:13.489920
MEAN_MOTION    = 15.80965030
ECCENTRICITY   = .00020879
INCLINATION    = 97.2852
RA_OF_ASC_NODE = 328.4140
ARG_OF_PERICENTER = 116.9769
MEAN_ANOMALY   = 243.1713

EPHEMERIS_TYPE = 0
CLASSIFICATION_TYPE = U
NORAD_CAT_ID   = 68230
ELEMENT_SET_NO = 999
REV_AT_EPOCH   = 388
BSTAR          = .12271214E-2
MEAN_MOTION_DOT = .243236E-2
MEAN_MOTION_DDOT = 0

CCSDS_OMM_VERS = 2.0
CREATION_DATE  = 
ORIGINATOR     = 

OBJECT_NAME    = STARLINK-37104
OBJECT_ID      = 2026-053AA
CENTER_NAME    = EARTH
REF_FRAME      = TEME
TIME_SYSTEM    = UTC
MEAN_ELEMENT_THEORY = SGP/SGP4

EPOCH          = 2026-04-02T21:32:08.814336
MEAN_MOTION    = 15.80931395
ECCENTRICITY   = .00012416
INCLINATION    = 97.2851
RA_OF_ASC_NODE = 328.4144
ARG_OF_PERICENTER = 76.1654
MEAN_ANOMALY   = 283.9752

EPHEMERIS_TYPE = 0
CLASSIFICATION_TYPE = U
NORAD_CAT_ID   = 68231
ELEMENT_SET_NO = 999
REV_AT_EPOCH   = 388
BSTAR          = .99316052E-3
MEAN_MOTION_DOT = .195444E-2
MEAN_MOTION_DDOT = 0

CCSDS_OMM_VERS = 2.0
CREATION_DATE  = 
ORIGINATOR     = 

OBJECT_NAME    = STARLINK-37027
OBJECT_ID      = 2026-054A
CENTER_NAME    = EARTH
REF_FRAME      = TEME
TIME_SYSTEM    = UTC
MEAN_ELEMENT_THEORY = SGP/SGP4

EPOCH          = 2026-04-02T22:00:01.999584
MEAN_MOTION    = 15.75207726
ECCENTRICITY   = .00010895
INCLINATION    = 53.1599
RA_OF_ASC_NODE = 191.4456
ARG_OF_PERICENTER = 109.6456
MEAN_ANOMALY   = 225.3259

EPHEMERIS_TYPE = 0
CLASSIFICATION_TYPE = U
NORAD_CAT_ID   = 68232
ELEMENT_SET_NO = 999
REV_AT_EPOCH   = 380
BSTAR          = -.27513693E-3
MEAN_MOTION_DOT = -.42545E-3
MEAN_MOTION_DDOT = 0

CCSDS_OMM_VERS = 2.0
CREATION_DATE  = 
ORIGINATOR     = 

OBJECT_NAME    = STARLINK-37132
OBJECT_ID      = 2026-054B
CENTER_NAME    = EARTH
REF_FRAME      = TEME
TIME_SYSTEM    = UTC
MEAN_ELEMENT_THEORY = SGP/SGP4

EPOCH          = 2026-04-02T17:09:17.098272
MEAN_MOTION    = 15.81045239
ECCENTRICITY   = .00008841
INCLINATION    = 53.1591
RA_OF_ASC_NODE = 192.2623
ARG_OF_PERICENTER = 89.6605
MEAN_ANOMALY   = 270.4519

EPHEMERIS_TYPE = 0
CLASSIFICATION_TYPE = U
NORAD_CAT_ID   = 68233
ELEMENT_SET_NO = 999
REV_AT_EPOCH   = 257
BSTAR          = .18554009E-2
MEAN_MOTION_DOT = .385376E-2
MEAN_MOTION_DDOT = 0

CCSDS_OMM_VERS = 2.0
CREATION_DATE  = 
ORIGINATOR     = 

OBJECT_NAME    = STARLINK-37101
OBJECT_ID      = 2026-054C
CENTER_NAME    = EARTH
REF_FRAME      = TEME
TIME_SYSTEM    = UTC
MEAN_ELEMENT_THEORY = SGP/SGP4

EPOCH          = 2026-04-02T22:00:01.999584
MEAN_MOTION    = 15.75229432
ECCENTRICITY   = .00011762
INCLINATION    = 53.1591
RA_OF_ASC_NODE = 191.3434
ARG_OF_PERICENTER = 87.8477
MEAN_ANOMALY   = 296.7589

EPHEMERIS_TYPE = 0
CLASSIFICATION_TYPE = U
NORAD_CAT_ID   = 68234
ELEMENT_SET_NO = 999
REV_AT_EPOCH   = 380
BSTAR          = -.46251839E-3
MEAN_MOTION_DOT = -.70917E-3
MEAN_MOTION_DDOT = 0

CCSDS_OMM_VERS = 2.0
CREATION_DATE  = 
ORIGINATOR     = 

OBJECT_NAME    = STARLINK-36963
OBJECT_ID      = 2026-054D
CENTER_NAME    = EARTH
REF_FRAME      = TEME
TIME_SYSTEM    = UTC
MEAN_ELEMENT_THEORY = SGP/SGP4

EPOCH          = 2026-04-02T22:00:01.999584
MEAN_MOTION    = 15.75278147
ECCENTRICITY   = .00012818
INCLINATION    = 53.1597
RA_OF_ASC_NODE = 191.3960
ARG_OF_PERICENTER = 129.2196
MEAN_ANOMALY   = 229.6229

EPHEMERIS_TYPE = 0
CLASSIFICATION_TYPE = U
NORAD_CAT_ID   = 68235
ELEMENT_SET_NO = 999
REV_AT_EPOCH   = 380
BSTAR          = -.11030006E-2
MEAN_MOTION_DOT = -.166716E-2
MEAN_MOTION_DDOT = 0

CCSDS_OMM_VERS = 2.0
CREATION_DATE  = 
ORIGINATOR     = 

OBJECT_NAME    = STARLINK-37127
OBJECT_ID      = 2026-054E
CENTER_NAME    = EARTH
REF_FRAME      = TEME
TIME_SYSTEM    = UTC
MEAN_ELEMENT_THEORY = SGP/SGP4

EPOCH          = 2026-04-02T17:39:20.767392
MEAN_MOTION    = 15.75340100
ECCENTRICITY   = .00010558
INCLINATION    = 53.1600
RA_OF_ASC_NODE = 192.4004
ARG_OF_PERICENTER = 82.7231
MEAN_ANOMALY   = 277.3910

EPHEMERIS_TYPE = 0
CLASSIFICATION_TYPE = U
NORAD_CAT_ID   = 68236
ELEMENT_SET_NO = 999
REV_AT_EPOCH   = 257
BSTAR          = .13135347E-2
MEAN_MOTION_DOT = .206613E-2
MEAN_MOTION_DDOT = 0

CCSDS_OMM_VERS = 2.0
CREATION_DATE  = 
ORIGINATOR     = 

OBJECT_NAME    = STARLINK-37095
OBJECT_ID      = 2026-054F
CENTER_NAME    = EARTH
REF_FRAME      = TEME
TIME_SYSTEM    = UTC
MEAN_ELEMENT_THEORY = SGP/SGP4

EPOCH          = 2026-04-02T17:32:48.507072
MEAN_MOTION    = 15.75350878
ECCENTRICITY   = .0000863
INCLINATION    = 53.1606
RA_OF_ASC_NODE = 192.3706
ARG_OF_PERICENTER = 89.5216
MEAN_ANOMALY   = 270.5903

EPHEMERIS_TYPE = 0
CLASSIFICATION_TYPE = U
NORAD_CAT_ID   = 68237
ELEMENT_SET_NO = 999
REV_AT_EPOCH   = 257
BSTAR          = .1463525E-2
MEAN_MOTION_DOT = .231063E-2
MEAN_MOTION_DDOT = 0

CCSDS_OMM_VERS = 2.0
CREATION_DATE  = 
ORIGINATOR     = 

OBJECT_NAME    = STARLINK-37097
OBJECT_ID      = 2026-054G
CENTER_NAME    = EARTH
REF_FRAME      = TEME
TIME_SYSTEM    = UTC
MEAN_ELEMENT_THEORY = SGP/SGP4

EPOCH          = 2026-04-02T18:34:54.821568
MEAN_MOTION    = 15.81074930
ECCENTRICITY   = .00011986
INCLINATION    = 53.1587
RA_OF_ASC_NODE = 191.9192
ARG_OF_PERICENTER = 84.6351
MEAN_ANOMALY   = 275.4809

EPHEMERIS_TYPE = 0
CLASSIFICATION_TYPE = U
NORAD_CAT_ID   = 68238
ELEMENT_SET_NO = 999
REV_AT_EPOCH   = 258
BSTAR          = .19355782E-2
MEAN_MOTION_DOT = .403458E-2
MEAN_MOTION_DDOT = 0

